NORAD_CAT_ID,OBJECT_NAME,OBJECT_TYPE,EPOCH,MEAN_MOTION,ECCENTRICITY,INCLINATION,RA_OF_ASC_NODE,ARG_OF_PERICENTER,MEAN_ANOMALY,BSTAR,MEAN_MOTION_DOT,MEAN_MOTION_DDOT,TLE_LINE0,TLE_LINE1,TLE_LINE2,SEMIMAJOR_AXIS,PERIOD,APOGEE,PERIGEE,DECAYED
53716.0,STARLINK-4699,PAYLOAD,2022-12-15 20:35:29,15.08847086,0.000167,53.2173,150.2559,50.9791,309.135,0.00014852,2.077e-05,0.0,0 STARLINK-4699,1 53716U 22107S   22349.85797998  .00002077  00000-0  14852-3 0  9995,2 53716  53.2173 150.2559 0001670  50.9791 309.1350 15.08847086 16293,6917.859,95.437,540.879,538.568,0.0
53716.0,STARLINK-4699,PAYLOAD,2022-12-16 14:04:44,15.08835872,0.0001764,53.2171,146.9844,55.9524,304.1636,-2.1636e-05,-6.32e-06,0.0,0 STARLINK-4699,1 53716U 22107S   22350.58662695 -.00000632  00000-0 -21636-4 0  9998,2 53716  53.2171 146.9844 0001764  55.9524 304.1636 15.08835872 15957,6917.893,95.438,540.9780000000002,538.538,0.0
53716.0,STARLINK-4699,PAYLOAD,2022-12-16 20:26:16,15.08840927,0.000177,53.2179,145.7947,57.8477,302.2687,-1.9894e-06,-3.2e-06,0.0,0 STARLINK-4699,1 53716U 22107S   22350.85158550 -.00000320  00000-0 -19894-5 0  9996,2 53716  53.2179 145.7947 0001770  57.8477 302.2687 15.08840927 16448,6917.878000000002,95.437,540.967,538.518,0.0
53716.0,STARLINK-4699,PAYLOAD,2022-12-17 10:44:44,15.08840939,0.0001728,53.2182,143.1184,57.2777,302.8381,0.00021698,3.167e-05,0.0,0 STARLINK-4699,1 53716U 22107S   22351.44774058  .00003167  00000-0  21698-3 0  9992,2 53716  53.2182 143.1184 0001728  57.2777 302.8381 15.08840939 16537,6917.878000000002,95.437,540.938,538.547,0.0
53716.0,STARLINK-4699,PAYLOAD,2022-12-17 18:41:41,15.08837191,0.0001658,53.2182,141.6318,53.4099,306.7046,1.7373e-05,-1.2e-07,0.0,0 STARLINK-4699,1 53716U 22107S   22351.77894697 -.00000012  00000-0  17373-4 0  9993,2 53716  53.2182 141.6318 0001658  53.4099 306.7046 15.08837191 16139,6917.889,95.438,540.901,538.607,0.0
53716.0,STARLINK-4699,PAYLOAD,2022-12-17 20:17:04,15.08837123,0.000166,53.2182,141.3345,53.5036,306.6109,1.3008e-05,-8.1e-07,0.0,0 STARLINK-4699,1 53716U 22107S   22351.84518711 -.00000081  00000-0  13008-4 0  9998,2 53716  53.2182 141.3345 0001660  53.5036 306.6109 15.08837123 16595,6917.889,95.438,540.903,538.606,0.0
53716.0,STARLINK-4699,PAYLOAD,2022-12-18 10:35:33,15.08826078,0.0001557,53.2186,138.6584,49.8734,310.2395,-2.2397e-05,-6.44e-06,0.0,0 STARLINK-4699,1 53716U 22107S   22352.44135905 -.00000644  00000-0 -22397-4 0  9992,2 53716  53.2186 138.6584 0001557  49.8734 310.2395 15.08826078 16237,6917.9230000000025,95.438,540.865,538.711,0.0
53716.0,STARLINK-4699,PAYLOAD,2022-12-18 16:57:05,15.08830805,0.0001561,53.2187,137.4693,50.5537,309.5593,2.4726e-05,1.05e-06,0.0,0 STARLINK-4699,1 53716U 22107S   22352.70631704  .00000105  00000-0  24726-4 0  9997,2 53716  53.2187 137.4693 0001561  50.5537 309.5593 15.08830805 16729,6917.908,95.438,540.8530000000002,538.694,0.0
53716.0,STARLINK-4699,PAYLOAD,2022-12-19 19:58:37,15.0885518,0.0001623,53.2177,132.4139,52.7912,307.3228,0.00026927,4.002e-05,0.0,0 STARLINK-4699,1 53716U 22107S   22353.83238318  .00004002  00000-0  26927-3 0  9990,2 53716  53.2177 132.4139 0001623  52.7912 307.3228 15.08855180 16890,6917.834,95.437,540.822,538.576,0.0
53716.0,STARLINK-4699,PAYLOAD,2022-12-20 02:20:11,15.08835453,0.0001583,53.2174,131.2245,54.1354,305.9785,5.3162e-05,5.58e-06,0.0,0 STARLINK-4699,1 53716U 22107S   22354.09735282  .00000558  00000-0  53162-4 0  9995,2 53716  53.2174 131.2245 0001583  54.1354 305.9785 15.08835453 16481,6917.894,95.438,540.854,538.664,0.0
53716.0,STARLINK-4699,PAYLOAD,2022-12-20 11:52:30,15.08834678,0.0001546,53.2176,129.4407,56.1272,303.9867,4.6212e-05,4.47e-06,0.0,0 STARLINK-4699,1 53716U 22107S   22354.49479492  .00000447  00000-0  46212-4 0  9992,2 53716  53.2176 129.4407 0001546  56.1272 303.9867 15.08834678 16995,6917.897,95.438,540.831,538.692,0.0
53716.0,STARLINK-4699,PAYLOAD,2022-12-21 11:43:17,15.08837638,0.0001534,53.2176,124.9804,58.3143,301.7999,0.00016981,2.415e-05,0.0,0 STARLINK-4699,1 53716U 22107S   22355.48839861  .00002415  00000-0  16981-3 0  9998,2 53716  53.2176 124.9804 0001534  58.3143 301.7999 15.08837638 16692,6917.888000000001,95.438,540.814,538.691,0.0
53716.0,STARLINK-4699,PAYLOAD,2022-12-22 11:34:04,15.08840744,0.0001501,53.2178,120.52,58.0902,302.0236,0.0002435,3.59e-05,0.0,0 STARLINK-4699,1 53716U 22107S   22356.48199985  .00003590  00000-0  24350-3 0  9999,2 53716  53.2178 120.5200 0001501  58.0902 302.0236 15.08840744 17297,6917.878000000002,95.438,540.781,538.705,0.0
53716.0,STARLINK-4699,PAYLOAD,2022-12-22 19:31:00,15.08848516,0.0001465,53.2175,119.0327,59.8141,300.2996,0.00035706,5.401e-05,0.0,0 STARLINK-4699,1 53716U 22107S   22356.81319715  .00005401  00000-0  35706-3 0  9991,2 53716  53.2175 119.0327 0001465  59.8141 300.2996 15.08848516 16893,6917.854,95.437,540.7330000000002,538.706,0.0
53716.0,STARLINK-4699,PAYLOAD,2022-12-23 14:35:37,15.0885038,0.0001472,53.2178,115.4642,61.6986,298.4155,0.00024469,3.61e-05,0.0,0 STARLINK-4699,1 53716U 22107S   22357.60807397  .00003610  00000-0  24469-3 0  9991,2 53716  53.2178 115.4642 0001472  61.6986 298.4155 15.08850380 17463,6917.849,95.437,540.732,538.695,0.0
53716.0,STARLINK-4699,PAYLOAD,2022-12-23 19:21:46,15.08852657,0.0001406999999999,53.2182,114.5734,54.5827,305.5296,0.00026011,3.856e-05,0.0,0 STARLINK-4699,1 53716U 22107S   22357.80679241  .00003856  00000-0  26011-3 0  9995,2 53716  53.2182 114.5734 0001407  54.5827 305.5296 15.08852657 17491,6917.842,95.437,540.68,538.7330000000002,0.0
53716.0,STARLINK-4699,PAYLOAD,2022-12-24 08:04:52,15.08831499,0.0001434,53.218,112.1938,65.0386,295.0755,-9.3024e-05,-1.768e-05,0.0,0 STARLINK-4699,1 53716U 22107S   22358.33672242 -.00001768  00000-0 -93024-4 0  9999,2 53716  53.2180 112.1938 0001434  65.0386 295.0755 15.08831499 17120,6917.906,95.438,540.763,538.779,0.0
53716.0,STARLINK-4699,PAYLOAD,2022-12-24 11:15:39,15.08830168,0.0001413,53.2182,111.5996,62.4018,297.7117,-0.00011539,-2.123e-05,0.0,0 STARLINK-4699,1 53716U 22107S   22358.46920357 -.00002123  00000-0 -11539-3 0  9992,2 53716  53.2182 111.5996 0001413  62.4018 297.7117 15.08830168 17593,6917.91,95.438,540.753,538.798,0.0
53716.0,STARLINK-4699,PAYLOAD,2022-12-24 17:37:11,15.08833385,0.0001460999999999,53.2181,110.4103,58.5912,301.5223,-6.2946e-05,-1.289e-05,0.0,0 STARLINK-4699,1 53716U 22107S   22358.73416503 -.00001289  00000-0 -62946-4 0  9996,2 53716  53.2181 110.4103 0001461  58.5912 301.5223 15.08833385 17633,6917.901,95.438,540.776,538.755,0.0
53716.0,STARLINK-4699,PAYLOAD,2022-12-25 07:55:39,15.08851631,0.0001393,53.2184,107.7349,55.478,304.6344,0.00029971,4.487e-05,0.0,0 STARLINK-4699,1 53716U 22107S   22359.33031593  .00004487  00000-0  29971-3 0  9996,2 53716  53.2184 107.7349 0001393  55.4780 304.6344 15.08851631 17272,6917.845,95.437,540.673,538.746,0.0
53716.0,STARLINK-4699,PAYLOAD,2022-12-25 17:27:58,15.08844667,0.0001467,53.2185,105.9508,60.2367,299.8771,0.00014493,2.02e-05,0.0,0 STARLINK-4699,1 53716U 22107S   22359.72775757  .00002020  00000-0  14493-3 0  9990,2 53716  53.2185 105.9508 0001467  60.2367 299.8771 15.08844667 17334,6917.866,95.437,540.746,538.716,0.0
53716.0,STARLINK-4699,PAYLOAD,2022-12-26 07:46:26,15.08841255,0.0001518,53.219,103.2747,61.5539,298.5606,0.00024359,3.591e-05,0.0,0 STARLINK-4699,1 53716U 22107S   22360.32392011  .00003591  00000-0  24359-3 0  9992,2 53716  53.2190 103.2747 0001518  61.5539 298.5606 15.08841255 17870,6917.877,95.437,540.7919999999998,538.691,0.0
53716.0,STARLINK-4699,PAYLOAD,2022-12-26 17:18:45,15.08848707,0.0001751999999999,53.2183,101.4905,59.2381,300.8784,0.00015216,2.135e-05,0.0,0 STARLINK-4699,1 53716U 22107S   22360.72135511  .00002135  00000-0  15216-3 0  9991,2 53716  53.2183 101.4905 0001752  59.2381 300.8784 15.08848707 17937,6917.854,95.437,540.931,538.507,0.0
53716.0,STARLINK-4699,PAYLOAD,2022-12-27 07:37:12,15.08864457,0.0001575,53.219,98.8145,65.3788,294.7368,-2.8624e-06,-3.34e-06,0.0,0 STARLINK-4699,1 53716U 22107S   22361.31750108 -.00000334  00000-0 -28624-5 0  9992,2 53716  53.2190  98.8145 0001575  65.3788 294.7368 15.08864457 17571,6917.806,95.436,540.76,538.581,0.0
53716.0,STARLINK-4699,PAYLOAD,2022-12-27 17:09:30,15.08866703,0.0001688,53.2191,97.0304,64.3236,295.793,0.00042431,6.476e-05,0.0,0 STARLINK-4699,1 53716U 22107S   22361.71493842  .00006476  00000-0  42431-3 0  9996,2 53716  53.2191  97.0304 0001688  64.3236 295.7930 15.08866703 18081,6917.799,95.436,540.831,538.496,0.0
53716.0,STARLINK-4699,PAYLOAD,2022-12-28 09:03:21,15.08860692,6.59e-05,53.2191,94.0547,75.8165,284.2901,0.00016149,2.285e-05,0.0,0 STARLINK-4699,1 53716U 22107S   22362.37732816  .00002285  00000-0  16149-3 0  9997,2 53716  53.2191  94.0547 0000659  75.8165 284.2901 15.08860692 17735,6917.816999999999,95.436,540.138,539.226,0.0
53716.0,STARLINK-4699,PAYLOAD,2022-12-29 05:43:23,15.08835271,0.0001968,53.2172,90.1895,66.1245,293.9954,-0.00019705,-3.423e-05,0.0,0 STARLINK-4699,1 53716U 22107S   22363.23846395 -.00003423  00000-0 -19705-3 0  9999,2 53716  53.2172  90.1895 0001968  66.1245 293.9954 15.08835271 17867,6917.895,95.438,541.121,538.398,0.0
53716.0,STARLINK-4699,PAYLOAD,2022-12-29 08:54:09,15.0882636,0.0001435,53.219,89.5964,57.6115,302.5016,-0.00033626,-5.633e-05,0.0,0 STARLINK-4699,1 53716U 22107S   22363.37094819 -.00005633  00000-0 -33626-3 0  9993,2 53716  53.2190  89.5964 0001435  57.6115 302.5016 15.08826360 17883,6917.922,95.438,540.78,538.794,0.0
53716.0,STARLINK-4699,PAYLOAD,2022-12-30 11:55:43,15.08841436,0.000154,53.2187,84.54,59.1278,300.9865,0.00033764,5.09e-05,0.0,0 STARLINK-4699,1 53716U 22107S   22364.49703249  .00005090  00000-0  33764-3 0  9999,2 53716  53.2187  84.5400 0001540  59.1278 300.9865 15.08841436 18058,6917.876,95.437,540.806,538.6759999999998,0.0
